STARLINK-37799          
1 69317U 26119X   26158.50004630 -.02396622  00000+0 -12245-1 0  9991
2 69317  97.2833 183.8155 0001346 108.0799 201.5297 15.84356415  2447
STARLINK-37802          
1 69318U 26119Y   26158.50004630 -.02388056  00000+0 -11630-1 0  9991
2 69318  97.2836 183.8197 0001161 101.6853 216.7123 15.85340806  2491
STARLINK-37803          
1 69319U 26119Z   26158.50004630 -.02296377  00000+0 -11329-1 0  9991
2 69319  97.2838 183.8210 0001294  97.9316 223.5228 15.85519269  2446
GUOWANG TEST OBJECT A   
1 69320U 26120A   26158.46264223  .00009002  00000+0  24096-3 0  9996
2 69320  54.9967  71.5399 0009599 294.3963  65.6063 15.38803685  1198
GUOWANG TEST OBJECT B   
1 69321U 26120B   26155.27875762  .00027005  00000+0  69390-3 0  9998
2 69321  55.0006  85.8667 0009100 296.4175  63.5919 15.39121370   705
GUOWANG TEST OBJECT C   
1 69322U 26120C   26158.00485189  .00017755  00000+0  45417-3 0  9998
2 69322  54.9981  73.5721 0009555 307.3825  52.6333 15.39521743  1123
GUOWANG TEST OBJECT D   
1 69323U 26120D   26155.66644343  .00032137  00000+0  80800-3 0  9993
2 69323  55.0029  84.1123 0008002 301.7889  58.2360 15.39704502   764
QIANFAN-163             
1 69325U 26121A   26158.44147459  .00000033  00000+0  27163-4 0  9995
2 69325  89.0165 301.5014 0019143 215.7485 144.2391 13.60351091   834
QIANFAN-164             
1 69326U 26121B   26158.44079421  .00000141  00000+0  17084-3 0  9999
2 69326  89.0161 301.5011 0018536 217.1819 142.8055 13.60504416   832
SZ-22 MODULE            
1 69328U 25272C   26158.31699472  .00020469  00000+0  25088-3 0  9995
2 69328  41.4811  22.0949 0007803   6.5068 353.5871 15.59825384  1786
