OBJECT_NAME,OBJECT_ID,EPOCH,MEAN_MOTION,ECCENTRICITY,INCLINATION,RA_OF_ASC_NODE,ARG_OF_PERICENTER,MEAN_ANOMALY,EPHEMERIS_TYPE,CLASSIFICATION_TYPE,NORAD_CAT_ID,ELEMENT_SET_NO,REV_AT_EPOCH,BSTAR,MEAN_MOTION_DOT,MEAN_MOTION_DDOT
STARLINK-37799,2026-119X,2026-06-07T12:00:04.000320,15.84356415,.0001346,97.2833,183.8155,108.0799,201.5297,0,U,69317,999,244,-.12245E-1,-.2396622E-1,0
STARLINK-37802,2026-119Y,2026-06-07T12:00:04.000320,15.85340806,.0001161,97.2836,183.8197,101.6853,216.7123,0,U,69318,999,249,-.1163E-1,-.2388056E-1,0
STARLINK-37803,2026-119Z,2026-06-07T12:00:04.000320,15.85519269,.0001294,97.2838,183.8210,97.9316,223.5228,0,U,69319,999,244,-.11329E-1,-.2296377E-1,0
GUOWANG TEST OBJECT A,2026-120A,2026-06-07T11:06:12.288672,15.38803685,.0009599,54.9967,71.5399,294.3963,65.6063,0,U,69320,999,119,.24096E-3,.9002E-4,0
GUOWANG TEST OBJECT B,2026-120B,2026-06-04T06:41:24.658368,15.39121370,.00091004,55.0006,85.8667,296.4175,63.5919,0,U,69321,999,70,.6938966E-3,.27005E-3,0
GUOWANG TEST OBJECT C,2026-120C,2026-06-07T00:06:59.203296,15.39521743,.0009555,54.9981,73.5721,307.3825,52.6333,0,U,69322,999,112,.45417E-3,.17755E-3,0
GUOWANG TEST OBJECT D,2026-120D,2026-06-04T15:59:40.712352,15.39704502,.00080029,55.0029,84.1123,301.7889,58.2360,0,U,69323,999,76,.80800046E-3,.32137E-3,0
QIANFAN-163,2026-121A,2026-06-07T10:35:43.404576,13.60351091,.0019143,89.0165,301.5014,215.7485,144.2391,0,U,69325,999,83,.27163E-4,.33E-6,0
QIANFAN-164,2026-121B,2026-06-07T10:34:44.619744,13.60504416,.0018536,89.0161,301.5011,217.1819,142.8055,0,U,69326,999,83,.17084E-3,.141E-5,0
SZ-22 MODULE,2025-272C,2026-06-07T07:36:28.343808,15.59825384,.0007803,41.4811,22.0949,6.5068,353.5871,0,U,69328,999,178,.25088E-3,.20469E-3,0
